#dP2019  9 10  0  0  0.00000000      96 __u+U ITR00 FIT  IAC
## 2070 172800.00000000   900.00000000 58736 0.0000000000000
+  116   C02C03C04C05C06C07C08C09C10C11C12C13C14C16C19C20C21
+        C22C23C24C25C26C27C28C29C30C32C33C34C35C36C37E01E02
+        E03E04E05E07E08E09E11E12E13E14E15E18E19E21E24E25E26
+        E27E30E31E33E36G01G02G03G04G05G06G07G08G09G10G11G12
+        G13G14G15G16G17G18G19G20G21G22G23G24G25G26G27G28G29
+        G30G31G32J01J02J03J07R01R02R03R05R06R07R08R09R11R12
+        R13R14R15R16R17R18R19R20R21R22R23R24R26R27  0  0  0
++        12 13 13 12  8  8  8  8  8  8  8  8  8  9  8  7  8
++         8  8  8  8  9  8  8  8  8  8  8  8  9  9  9  5  5
++         5  5  5  5  5  5  5  5  5  5  4  5  4  4  5  5  5
++         5  4  5  5  5  3  3  3  4  3  3  3  3  3  3  3  3
++         3  3  3  3  3  3  3  3  3  3  3  3  3  3  4  3  3
++         3  3  3  9  8  8 13  6  5  5  5 11  5  5  5  5  5
++         6  5  5  6  5  5  6  6  5  5  5  6  8  8  0  0  0
%c M  cc GPS ccc cccc cccc cccc cccc ccccc ccccc ccccc ccccc
%c cc cc ccc ccc cccc cccc cccc cccc ccccc ccccc ccccc ccccc
%f  0.0000000  0.000000000  0.00000000000  0.000000000000000
%f  0.0000000  0.000000000  0.00000000000  0.000000000000000
%i    0    0    0    0      0      0      0      0         0
%i    0    0    0    0      0      0      0      0         0
/* INFORMATION & ANALYSIS CENTER (IAC)            RAPID DATA
/* S/V CLOCKS ARE ALIGNED TO GNSS TIME                      
/* G:C1WC2W R:C1PC2P E:C1XC5X E:C2IC6I J:C1CC2S             
/* PCV:IGS14_2062 OL/AL:FES2004  NONE     YN ORB:CoN CLK:CoN
*  2019 09 10 17 45  0.00000000
PC02   4281.167868  41930.978503   -925.064208    879.112973
PC03 -14738.565094  39484.771690   -507.710686     14.927589
PC04 -39645.453163  14397.008022     -3.246564     -2.450748
PC05  21867.512190  36010.322747  -1070.012299     22.059866
PC06 -16640.416496  38306.626596  -3545.423928    420.911571
PC07  -7816.751318  27349.482895  31423.459471   -121.773258
PC08 -24104.278295  21525.531570 -27187.146455     -3.142713
PC09  -8238.013386  39844.940968  10574.313788    -43.070241
PC10   4919.201880  33521.724329  25525.771073   -163.841561
PC11 -10942.008689 -10807.832435  23334.871221    120.481049
PC12  13071.506023 -23290.265942   7989.646313   -243.705226
PC13  -8700.200703  24341.383003 -33320.015585   -904.308946
PC14  -9892.675531 -26108.595503   -614.103087    506.179677
PC16 -14338.362902  39552.108777   -800.218951   -877.529330
PC19  17620.945830  12731.041073  17528.805455    194.648104
PC20  10977.482620  25575.025625   2275.832502    -51.115565
PC21   2460.126198 -23539.299268  14781.645506    318.767724
PC22  14135.696173  -7671.076524  22805.505499    -86.540390
PC23 -24221.943993   4649.812740  13060.586891   -941.046660
PC24 -12902.113288 -16100.641326 -18789.748642   -905.906458
PC25 -26667.330131  -7290.245062  -3851.178288   -344.018157
PC26   7008.455748 -14930.088864 -22504.780590    382.103587
PC27 -13375.097072  23222.124136  -7775.536968    186.834394
PC28 -21819.532732  14384.383333   9807.370937    181.416303
PC29  17584.988848   2156.901601 -21566.489834    116.615749
PC30   3387.716529  18457.302374 -20651.043391    190.218191
PC32  -2253.363419  23593.529174 -14729.070958   -923.167740
PC33 -17678.961168 -12683.163273 -17459.438719   -375.037536
PC34  -3582.404155 -18330.661410  20733.424045    -66.187352
PC35  21357.374318 -15037.946669  -9858.764152   -324.859005
PC36  26430.102536   8031.805811   4047.947904   -818.304658
PC37  -7959.201821  14596.478830  22442.262613   -464.417194
PE01  24113.690313   2750.779961 -16942.573383   -687.190849
PE02 -24082.842195  -2675.808025  17009.630743     78.392775
PE03 -17093.438954   5792.267959 -23463.368753   -209.358776
PE04  10756.737596 -24468.566981  12720.258414   -362.723384
PE05 -13472.216190 -16486.697487 -20559.465988   -449.782181
PE07   2000.514521  28993.807766   5659.579573   -263.488700
PE08 -10410.166269  24664.148213 -12643.389656   6293.924942
PE09  -2210.535689 -28948.008326  -5716.488881   6320.511701
PE11    716.333505 -17871.160333  23576.690927   5596.054903
PE12  20249.610770 -18470.168045  11188.171154   6204.883625
PE13   -809.154308  17855.371794 -23594.883166    392.681252
PE14   9053.867997  21739.186986 -21507.132714   -714.885444
PE15 -19916.833096  18627.734525 -11516.549177    895.947132
PE18   -623.793684 -21175.415644  12336.507873   -809.203521
PE19  17057.281916  -3451.421779  23948.200317     -4.034563
PE21  24281.465277  16920.746421    779.806817   -554.133043
PE24 -10147.525792 -21290.781870 -17894.756359   5878.051656
PE25 -24251.469181 -16942.150158   -832.259520   1682.824471
PE26  18931.656765   6801.827531 -21711.163302   4122.631677
PE27  10110.551449  21185.204194  18045.496626    390.077589
PE30  -9957.913147  13048.337246  24632.037679   4557.663377
PE31   9947.937740 -12992.149665 -24652.037840   -468.266732
PE33  27391.717140  -8485.623250  -7333.974064   -470.021151
PE36 -18828.165409  -6606.158421  21864.912780    663.777092
PG01   6950.254637  13932.352768 -21759.948020   -124.456381
PG02  14957.150564 -14961.876152  16589.510682   -302.167548
PG03  12566.042912  22774.157174  -5662.554685     -9.625127
PG04 -13018.513999  20602.198959   9561.630485     94.213019
PG05   4365.215716 -16974.283534  19764.673267     -1.306959
PG06  25512.235480  -6257.654380   4065.906848    -53.095626
PG07  21605.946615   7515.328738  14172.927328   -103.557380
PG08  -3759.842408  24852.613536  -8213.005544     -5.987393
PG09  11659.731850  11186.249322  21033.140699    -27.924731
PG10 -19272.715682  -4855.140601 -17660.474535    -48.377691
PG11   3286.973009  17073.246220 -20658.670205   -510.874048
PG12  -8268.954895 -23628.393987  -9326.791520    205.345995
PG13  12841.484396 -23208.738515   -343.267522    -45.067739
PG14 -17450.032407  15391.079510 -12312.260912    -62.037701
PG15    396.578889 -24849.086639  -9076.450345   -287.933123
PG16  -6686.060638  15025.534912  20561.060899    -72.898013
PG17  17110.879749  -7356.196986 -18487.653411    123.044041
PG18  -2710.437631  15994.508514 -21522.295944     84.679168
PG19  18120.944913 -12905.474387 -14835.168180   -269.075808
PG20 -21871.494236 -11802.379936  -9715.608956    526.818473
PG21 -23908.650120  -3701.950601  11530.803180   -121.147007
PG22   7795.300406  22231.561133 -12134.867133   -753.464980
PG23   4157.855747  21000.427349  15811.718571   -167.599907
PG24  -4580.088464 -15181.357391 -21482.402809     -1.974415
PG25 -17826.005705 -19567.151787   3270.364894    -11.616198
PG26 -14063.207874   6985.785833  21421.327054     35.847521
PG27 -12267.747411  23019.501763   3938.616839    -51.362229
PG28  18070.612767   6264.008918 -17780.270793    762.573839
PG29  -8512.351835 -14007.948516  20858.407654    101.435241
PG30  26374.159800    439.126879   3954.724545    -37.924331
PG31 -25229.652009   6832.787785   5906.759869     11.292234
PG32 -17205.379892   7518.119781 -18673.036879     52.013694
PJ01 -18333.873052  26505.752450 -22636.406237   -349.102965
PJ02 -28167.337703  20706.998233  28378.074158     -3.777792
PJ03 -32271.577487  25943.057490  13129.172674     -1.739194
PJ07 -25405.784539  33660.645507     -6.214466     -0.056044
PR01  -1621.444206 -24831.332422   5571.766268     49.511600
PR02  -9792.290432 -18583.180692 -14475.204743    387.433425
PR03 -11194.666533  -1085.671052 -22859.634536      1.316151
PR05   2544.330680  25187.754880  -3030.694078     35.453875
PR06  10549.063110  17571.327310  15158.475384    161.641862
PR07  11136.095878    398.030175  22976.239073    -26.431095
PR08   6130.698123 -16830.976845  18215.218842     15.728154
PR09  22074.353053  11506.908451   5756.345217     89.930434
PR11  11813.861190  -6638.093490 -21599.936616    -78.922922
PR12  -5724.374350 -12918.912192 -21205.859255     60.448907
PR13 -20980.552159 -11958.870784  -8207.962993    -28.221194
PR14 -23354.366033  -4246.545634   9331.763325     42.853778
PR15 -12510.716435   6033.352346  21421.597532    103.908841
PR16   5993.777036  12991.817463  21074.408184      4.639279
PR17 -19648.631091   7172.526886  14636.529803    259.123538
PR18 -19416.122702  16427.912792  -1584.464266      6.984256
PR19  -9348.611748  16669.890129 -16903.941227    -53.056252
PR20   8308.835072   6705.080512 -23165.494394   -390.051741
PR21  19814.650300  -7675.717540 -14089.175804    -71.574902
PR22  18400.709640 -17166.292584   4522.967140   -174.831395
PR23   3982.009911 -14850.397621  20338.909621    253.002050
PR24 -10094.541975  -5107.604354  22831.618742   -184.588528
PR26   5550.940090   8946.268344 -23226.201603     -6.043837
PR27 -16660.944150   2963.946827  19141.568156    121.160847
EOF
